0 FENGYUN 1C DEB
1 33718U 99025DHF 13281.15681630  .00001353  00000-0  10280-2 0  3340
2 33718 099.6987 049.1601 0123402 059.6153 301.7224 13.92154327312095
0 FENGYUN 1C DEB
1 33718U 99025DHF 13287.12188219  .00001410  00000-0  10697-2 0  3366
2 33718 099.6968 055.3927 0123324 043.2095 317.8903 13.92173000312924
0 FENGYUN 1C DEB
1 33718U 99025DHF 13289.56537205  .00001508  00000-0  11408-2 0  3379
2 33718 099.6980 057.9513 0123538 036.1623 324.8740 13.92183538313264
0 FENGYUN 1C DEB
1 33718U 99025DHF 13290.57148766  .00002132  00000-0  15671-2 0  3394
2 33718 099.7020 059.0161 0121627 034.4960 326.4477 13.92191710313406
0 FENGYUN 1C DEB
1 33718U 99025DHF 13291.14642628  .00001536  00000-0  11621-2 0  3381
2 33718 099.6987 059.6078 0123476 032.2781 328.6161 13.92189487313481
0 FENGYUN 1C DEB
1 33718U 99025DHF 13293.58987991  .00001566  00000-0  11844-2 0  3397
2 33718 099.6990 062.1598 0122807 025.2176 335.5278 13.92198450313822
